STARLINK-30379          
1 57811U 23138D   26157.51615509  .00000453  00000+0  25974-4 0  9994
2 57811  43.0039  92.4992 0001428 278.8892  81.1798 15.27584111152329
STARLINK-30395          
1 57812U 23138E   26157.52000991 -.00000152  00000+0  40133-5 0  9991
2 57812  43.0016  92.5241 0002057 267.1889  92.8728 15.27576852152324
STARLINK-30403          
1 57813U 23138F   26157.52258326  .00000279  00000+0  19673-4 0  9992
2 57813  43.0055  92.5516 0001282 269.2210  90.8495 15.27581292152225
STARLINK-30413          
1 57814U 23138G   26157.09828808  .00000787  00000+0  38131-4 0  9997
2 57814  43.0039  95.3810 0001613 274.2160  85.8507 15.27581875152252
STARLINK-30398          
1 57815U 23138H   26153.93790353 -.00000933  00000+0 -24322-4 0  9992
2 57815  43.0006 112.9385 0004431 233.5602 126.4842 15.27565102151674
STARLINK-30386          
1 57816U 23138J   26157.53800538  .00003537  00000+0  13796-3 0  9993
2 57816  43.0050  92.6647 0000418 354.6696   5.4151 15.27588759152143
STARLINK-30391          
1 57817U 23138K   26157.54185911  .00034913  00000+0  12709-2 0  9990
2 57817  43.0014  92.6868 0001275 255.8712 104.1998 15.27614857152327
STARLINK-30401          
1 57818U 23138L   26157.54442974  .00000312  00000+0  20879-4 0  9991
2 57818  43.0030  92.6975 0001119 252.9782 107.0947 15.27577758152220
STARLINK-30390          
1 57819U 23138M   26157.54827333  .00001680  00000+0  70563-4 0  9992
2 57819  43.0080  92.7349 0002290 259.0018 101.0576 15.27588486152269
STARLINK-30409          
1 57820U 23138N   26157.50587043  .00001090  00000+0  49129-4 0  9990
2 57820  43.0000  92.4034 0001039 266.1352  93.9380 15.27586798152267
STARLINK-30415          
1 57821U 23138P   26156.12134577  .00001830  00000+0  75998-4 0  9993
2 57821  43.0012 100.9432 0001550 263.1497  96.9179 15.27582827152104
STARLINK-30407          
1 57823U 23138R   26157.46522331  .00000680  00000+0  34239-4 0  9997
2 57823  43.0029 347.4291 0001385 295.1067  64.9641 15.27559684153542
STARLINK-30408          
1 57824U 23138S   26157.50201598  .00001719  00000+0  71965-4 0  9993
2 57824  43.0036  92.3927 0001251 269.7997  90.2712 15.27589051152310
STARLINK-30377          
1 57825U 23138T   26157.10842203 -.00001136  00000+0 -31777-4 0  9996
2 57825  43.0039  94.5992 0001392 268.4119  91.6573 15.27573363152159
STARLINK-30422          
1 57826U 23138U   26157.52387232  .00001429  00000+0  61434-4 0  9995
2 57826  43.0054  92.5451 0000699 284.6172  75.4602 15.27585865152314
STARLINK-30402          
1 57827U 23138V   26157.51358827  .00001820  00000+0  75649-4 0  9991
2 57827  43.0046  92.4738 0000920 266.8827  93.1919 15.27584450152316
STARLINK-30411          
1 57828U 23138W   26157.50972075  .00002724  00000+0  10844-3 0  9997
2 57828  43.0033  92.4234 0001331 261.4550  98.6151 15.27594144152257
STARLINK-30418          
1 57829U 23138X   26157.50458602  .00001474  00000+0  63045-4 0  9996
2 57829  43.0028  92.4067 0001176 261.0582  99.0137 15.27587679152157
YAOGAN-40 01A           
1 57830U 23139A   26157.59758750  .00000161  00000+0  76945-4 0  9990
2 57830  85.9910 264.7047 0002014 100.0094 260.1317 14.12445582141202
YAOGAN-40 01B           
1 57832U 23139C   26157.59773675  .00000198  00000+0  97261-4 0  9999
2 57832  85.9908 264.6830 0002029 103.8927 256.2482 14.12447469141218
YAOGAN-40 01C           
1 57833U 23139D   26157.59765951  .00000203  00000+0  10006-3 0  9996
2 57833  85.9912 263.9678 0002873 102.2696 257.8809 14.12445667141318
STARLINK-30285          
1 57840U 23141A   26157.52286563  .00004214  00000+0  14748-3 0  9990
2 57840  53.1586 231.1514 0001014  93.7416 266.3701 15.31701501153937
STARLINK-30410          
1 57841U 23141B   26157.46693573  .00002395  00000+0  88892-4 0  9997
2 57841  53.1598 231.3250 0001180  91.8522 268.2615 15.31706258153929
STARLINK-30435          
1 57842U 23141C   26157.48560515  .00001477  00000+0  59310-4 0  9992
2 57842  53.1595 231.4702 0001000  72.4169 287.6942 15.31719827153927
STARLINK-30423          
1 57843U 23141D   26157.47626496  .00001771  00000+0  68795-4 0  9997
2 57843  53.1597 231.3703 0001147  75.1695 284.9434 15.31710006153922
STARLINK-30292          
1 57844U 23141E   26157.51892643  .00000490  00000+0  28662-4 0  9998
2 57844  53.1603 231.1364 0001018 103.3831 256.7284 15.30196941153931
STARLINK-30416          
1 57847U 23141H   26157.53685645  .00008152  00000+0  27377-3 0  9999
2 57847  53.1597 231.2049 0000983  91.4587 268.6527 15.31747949153935
STARLINK-30426          
1 57848U 23141J   26157.51477316  .00001376  00000+0  58584-4 0  9998
2 57848  53.1601 231.5716 0001337  85.1283 274.9871 15.30202614153928
STARLINK-30430          
1 57849U 23141K   26157.48096521  .00000289  00000+0  21080-4 0  9993
2 57849  53.1610 231.6039 0001161  84.6914 275.4220 15.31711915153922
STARLINK-30425          
1 57850U 23141L   26157.51794082  .00002060  00000+0  81632-4 0  9994
2 57850  53.1596 231.5969 0001124  72.6190 287.4934 15.30207835153925
