OBJECT_NAME,OBJECT_ID,EPOCH,MEAN_MOTION,ECCENTRICITY,INCLINATION,RA_OF_ASC_NODE,ARG_OF_PERICENTER,MEAN_ANOMALY,EPHEMERIS_TYPE,CLASSIFICATION_TYPE,NORAD_CAT_ID,ELEMENT_SET_NO,REV_AT_EPOCH,BSTAR,MEAN_MOTION_DOT,MEAN_MOTION_DDOT
STARLINK-30379,2023-138D,2026-06-06T12:23:15.799776,15.27584111,.00014284,43.0039,92.4992,278.8892,81.1798,0,U,57811,999,15232,.25974121E-4,.453E-5,0
STARLINK-30395,2023-138E,2026-06-06T12:28:48.856224,15.27576852,.0002057,43.0016,92.5241,267.1889,92.8728,0,U,57812,999,15232,.4013262E-5,-.152E-5,0
STARLINK-30403,2023-138F,2026-06-06T12:32:31.193664,15.27581292,.00012822,43.0055,92.5516,269.2210,90.8495,0,U,57813,999,15222,.19673211E-4,.279E-5,0
STARLINK-30413,2023-138G,2026-06-06T02:21:32.090112,15.27581875,.0001613,43.0039,95.3810,274.2160,85.8507,0,U,57814,999,15225,.38131E-4,.787E-5,0
STARLINK-30398,2023-138H,2026-06-02T22:30:34.864992,15.27565102,.0004431,43.0006,112.9385,233.5602,126.4842,0,U,57815,999,15167,-.24322E-4,-.933E-5,0
STARLINK-30386,2023-138J,2026-06-06T12:54:43.664832,15.27588759,.00004181,43.0050,92.6647,354.6696,5.4151,0,U,57816,999,15214,.1379628E-3,.3537E-4,0
STARLINK-30391,2023-138K,2026-06-06T13:00:16.627104,15.27614857,.00012759,43.0014,92.6868,255.8712,104.1998,0,U,57817,999,15232,.12708994E-2,.34913E-3,0
STARLINK-30401,2023-138L,2026-06-06T13:03:58.729536,15.27577758,.00011198,43.0030,92.6975,252.9782,107.0947,0,U,57818,999,15222,.20878688E-4,.312E-5,0
STARLINK-30390,2023-138M,2026-06-06T13:09:30.815712,15.27588486,.00022906,43.0080,92.7349,259.0018,101.0576,0,U,57819,999,15226,.70563362E-4,.168E-4,0
STARLINK-30409,2023-138N,2026-06-06T12:08:27.205152,15.27586798,.00010399,43.0000,92.4034,266.1352,93.9380,0,U,57820,999,15226,.49128817E-4,.109E-4,0
STARLINK-30415,2023-138P,2026-06-05T02:54:44.274528,15.27582827,.00015505,43.0012,100.9432,263.1497,96.9179,0,U,57821,999,15210,.75998132E-4,.183E-4,0
STARLINK-30407,2023-138R,2026-06-06T11:09:55.293984,15.27559684,.00013851,43.0029,347.4291,295.1067,64.9641,0,U,57823,999,15354,.34239411E-4,.68E-5,0
STARLINK-30408,2023-138S,2026-06-06T12:02:54.180672,15.27589051,.0001251,43.0036,92.3927,269.7997,90.2712,0,U,57824,999,15231,.71964978E-4,.1719E-4,0
STARLINK-30377,2023-138T,2026-06-06T02:36:07.663392,15.27573363,.0001392,43.0039,94.5992,268.4119,91.6573,0,U,57825,999,15215,-.31777E-4,-.1136E-4,0
STARLINK-30422,2023-138U,2026-06-06T12:34:22.568448,15.27585865,.00006999,43.0054,92.5451,284.6172,75.4602,0,U,57826,999,15231,.61434146E-4,.1429E-4,0
STARLINK-30402,2023-138V,2026-06-06T12:19:34.026528,15.27584450,.00009206,43.0046,92.4738,266.8827,93.1919,0,U,57827,999,15231,.75648977E-4,.182E-4,0
STARLINK-30411,2023-138W,2026-06-06T12:13:59.872800,15.27594144,.00013312,43.0033,92.4234,261.4550,98.6151,0,U,57828,999,15225,.1084416E-3,.2724E-4,0
STARLINK-30418,2023-138X,2026-06-06T12:06:36.232128,15.27587679,.00011762,43.0028,92.4067,261.0582,99.0137,0,U,57829,999,15215,.63045124E-4,.1474E-4,0
YAOGAN-40 01A,2023-139A,2026-06-06T14:20:31.560000,14.12445582,.00020148,85.9910,264.7047,100.0094,260.1317,0,U,57830,999,14120,.76945043E-4,.161E-5,0
YAOGAN-40 01B,2023-139C,2026-06-06T14:20:44.455200,14.12447469,.0002029,85.9908,264.6830,103.8927,256.2482,0,U,57832,999,14121,.97260805E-4,.198E-5,0
YAOGAN-40 01C,2023-139D,2026-06-06T14:20:37.781664,14.12445667,.00028737,85.9912,263.9678,102.2696,257.8809,0,U,57833,999,14131,.10005579E-3,.203E-5,0
STARLINK-30285,2023-141A,2026-06-06T12:32:55.590432,15.31701501,.00010143,53.1586,231.1514,93.7416,266.3701,0,U,57840,999,15393,.1474764E-3,.4214E-4,0
STARLINK-30410,2023-141B,2026-06-06T11:12:23.247072,15.31706258,.00011808,53.1598,231.3250,91.8522,268.2615,0,U,57841,999,15392,.88891526E-4,.2395E-4,0
STARLINK-30435,2023-141C,2026-06-06T11:39:16.284960,15.31719827,.00010006,53.1595,231.4702,72.4169,287.6942,0,U,57842,999,15392,.59309523E-4,.1477E-4,0
STARLINK-30423,2023-141D,2026-06-06T11:25:49.292544,15.31710006,.00011477,53.1597,231.3703,75.1695,284.9434,0,U,57843,999,15392,.6879486E-4,.1771E-4,0
STARLINK-30292,2023-141E,2026-06-06T12:27:15.243552,15.30196941,.00010181,53.1603,231.1364,103.3831,256.7284,0,U,57844,999,15393,.28662463E-4,.49E-5,0
STARLINK-30416,2023-141H,2026-06-06T12:53:04.397280,15.31747949,.00009836,53.1597,231.2049,91.4587,268.6527,0,U,57847,999,15393,.2737659E-3,.8152E-4,0
STARLINK-30426,2023-141J,2026-06-06T12:21:16.401024,15.30202614,.00013376,53.1601,231.5716,85.1283,274.9871,0,U,57848,999,15392,.58584084E-4,.1376E-4,0
STARLINK-30430,2023-141K,2026-06-06T11:32:35.394144,15.31711915,.00011618,53.1610,231.6039,84.6914,275.4220,0,U,57849,999,15392,.2108029E-4,.289E-5,0
STARLINK-30425,2023-141L,2026-06-06T12:25:50.086848,15.30207835,.00011246,53.1596,231.5969,72.6190,287.4934,0,U,57850,999,15392,.81631937E-4,.206E-4,0
